{
  "norad_id": 28380,
  "name": "COSMOS 2407",
  "history": [
    {
      "epoch": "2026-04-11T18:55:11.583264Z",
      "apogee_km": 1006.8607137859981,
      "perigee_km": 947.0139449826638,
      "latitude_deg": 5.054115991543824,
      "longitude_deg": 179.59257808487027,
      "height_km": 982.4494099034199,
      "semi_major_axis_km": 7355.074329384331,
      "eccentricity": 0.0040684,
      "inclination_deg": 82.9574,
      "raan_deg": 124.0164,
      "arg_perigee_deg": 78.5999,
      "mean_anomaly_deg": 95.759,
      "mean_motion_rev_day": 13.7632869
    },
    {
      "epoch": "2026-04-13T01:36:42.617088Z",
      "apogee_km": 1006.8457525456706,
      "perigee_km": 947.0276735448442,
      "latitude_deg": 26.584701905419156,
      "longitude_deg": -98.845844108263,
      "height_km": 960.2325504383928,
      "semi_major_axis_km": 7355.073713045257,
      "eccentricity": 0.00406645,
      "inclination_deg": 82.9573,
      "raan_deg": 123.069,
      "arg_perigee_deg": 75.1448,
      "mean_anomaly_deg": 311.97,
      "mean_motion_rev_day": 13.76328863
    },
    {
      "epoch": "2026-04-14T20:11:48.221376Z",
      "apogee_km": 1006.8155423962771,
      "perigee_km": 947.0570429081354,
      "latitude_deg": 5.649665885138599,
      "longitude_deg": 155.09488547461933,
      "height_km": 986.3392595968894,
      "semi_major_axis_km": 7355.073292652206,
      "eccentricity": 0.0040624,
      "inclination_deg": 82.9572,
      "raan_deg": 121.7546,
      "arg_perigee_deg": 70.3427,
      "mean_anomaly_deg": 103.4311,
      "mean_motion_rev_day": 13.76328981
    },
    {
      "epoch": "2026-04-15T18:51:41.595840Z",
      "apogee_km": 1006.8006820107157,
      "perigee_km": 947.0716040308735,
      "latitude_deg": 9.145091574680563,
      "longitude_deg": 173.05503270021512,
      "height_km": 985.6879967143923,
      "semi_major_axis_km": 7355.073143020794,
      "eccentricity": 0.0040604,
      "inclination_deg": 82.9571,
      "raan_deg": 121.055,
      "arg_perigee_deg": 67.7906,
      "mean_anomaly_deg": 102.4805,
      "mean_motion_rev_day": 13.76329023
    },
    {
      "epoch": "2026-04-16T19:18:07.830720Z",
      "apogee_km": 1006.7744420370409,
      "perigee_km": 947.0968535872234,
      "latitude_deg": 6.259794349481222,
      "longitude_deg": 165.04869951601728,
      "height_km": 988.6479208480572,
      "semi_major_axis_km": 7355.072647812132,
      "eccentricity": 0.0040569,
      "inclination_deg": 82.957,
      "raan_deg": 120.3005,
      "arg_perigee_deg": 65.0273,
      "mean_anomaly_deg": 108.1466,
      "mean_motion_rev_day": 13.76329162
    },
    {
      "epoch": "2026-04-17T22:36:01.589184Z",
      "apogee_km": 1006.7484855385283,
      "perigee_km": 947.1217982926746,
      "latitude_deg": 45.225633648715736,
      "longitude_deg": -58.50070426652332,
      "height_km": 955.1619171091965,
      "semi_major_axis_km": 7355.072141915601,
      "eccentricity": 0.00405344,
      "inclination_deg": 82.9569,
      "raan_deg": 119.4579,
      "arg_perigee_deg": 61.9516,
      "mean_anomaly_deg": 343.7515,
      "mean_motion_rev_day": 13.76329304
    },
    {
      "epoch": "2026-04-18T18:24:35.239392Z",
      "apogee_km": 1006.7332880287704,
      "perigee_km": 947.1366110360977,
      "latitude_deg": 6.426694146534391,
      "longitude_deg": 175.02498740822242,
      "height_km": 991.1287270462173,
      "semi_major_axis_km": 7355.071949532434,
      "eccentricity": 0.0040514,
      "inclination_deg": 82.957,
      "raan_deg": 118.8464,
      "arg_perigee_deg": 59.7117,
      "mean_anomaly_deg": 113.3106,
      "mean_motion_rev_day": 13.76329358
    },
    {
      "epoch": "2026-04-19T18:19:13.304352Z",
      "apogee_km": 1006.704267003518,
      "perigee_km": 947.1649622829818,
      "latitude_deg": 65.74006319582621,
      "longitude_deg": 11.265163083463296,
      "height_km": 958.9354617977311,
      "semi_major_axis_km": 7355.07161464325,
      "eccentricity": 0.0040475,
      "inclination_deg": 82.9569,
      "raan_deg": 118.1083,
      "arg_perigee_deg": 57.0085,
      "mean_anomaly_deg": 9.5512,
      "mean_motion_rev_day": 13.76329452
    },
    {
      "epoch": "2026-04-20T10:14:36.410784Z",
      "apogee_km": 1006.6829071118082,
      "perigee_km": 947.186115540957,
      "latitude_deg": 66.65143349044514,
      "longitude_deg": -81.09419054095004,
      "height_km": 972.2599287144915,
      "semi_major_axis_km": 7355.071511326382,
      "eccentricity": 0.00404461,
      "inclination_deg": 82.9569,
      "raan_deg": 117.6168,
      "arg_perigee_deg": 55.2057,
      "mean_anomaly_deg": 56.8098,
      "mean_motion_rev_day": 13.76329481
    },
    {
      "epoch": "2026-04-21T17:56:47.315904Z",
      "apogee_km": 1006.647992869709,
      "perigee_km": 947.2204882601918,
      "latitude_deg": 6.0898346124680245,
      "longitude_deg": 176.87033572631694,
      "height_km": 994.9894534658793,
      "semi_major_axis_km": 7355.07124056495,
      "eccentricity": 0.0040399,
      "inclination_deg": 82.9568,
      "raan_deg": 116.6381,
      "arg_perigee_deg": 51.6167,
      "mean_anomaly_deg": 121.776,
      "mean_motion_rev_day": 13.76329557
    },
    {
      "epoch": "2026-04-22T18:23:40.941312Z",
      "apogee_km": 1006.6139341893359,
      "perigee_km": 947.2540980466547,
      "latitude_deg": 1.6574860203835609,
      "longitude_deg": 168.9357110071768,
      "height_km": 998.4007217984807,
      "semi_major_axis_km": 7355.071016117995,
      "eccentricity": 0.0040353,
      "inclination_deg": 82.9567,
      "raan_deg": 115.8834,
      "arg_perigee_deg": 48.8394,
      "mean_anomaly_deg": 129.0269,
      "mean_motion_rev_day": 13.7632962
    },
    {
      "epoch": "2026-04-23T09:46:36.412896Z",
      "apogee_km": 1006.5919664432649,
      "perigee_km": 947.2756739012393,
      "latitude_deg": 66.92826258693361,
      "longitude_deg": -79.46938059347168,
      "height_km": 975.8869571755212,
      "semi_major_axis_km": 7355.070820172252,
      "eccentricity": 0.00403234,
      "inclination_deg": 82.9567,
      "raan_deg": 115.4086,
      "arg_perigee_deg": 47.0943,
      "mean_anomaly_deg": 64.5999,
      "mean_motion_rev_day": 13.76329675
    },
    {
      "epoch": "2026-04-24T11:57:00.859104Z",
      "apogee_km": 1006.5553498105901,
      "perigee_km": 947.311727635285,
      "latitude_deg": 66.49585079350203,
      "longitude_deg": -113.59933508490046,
      "height_km": 977.4455228243144,
      "semi_major_axis_km": 7355.070538722937,
      "eccentricity": 0.0040274,
      "inclination_deg": 82.9567,
      "raan_deg": 114.6006,
      "arg_perigee_deg": 44.124,
      "mean_anomaly_deg": 68.0154,
      "mean_motion_rev_day": 13.76329754
    },
    {
      "epoch": "2026-04-25T17:54:42.640704Z",
      "apogee_km": 1006.5128070915134,
      "perigee_km": 947.3530376778044,
      "latitude_deg": 5.3374773406986,
      "longitude_deg": 170.5796464539853,
      "height_km": 999.7208954388731,
      "semi_major_axis_km": 7355.069922384659,
      "eccentricity": 0.0040217,
      "inclination_deg": 82.9567,
      "raan_deg": 113.6757,
      "arg_perigee_deg": 40.7266,
      "mean_anomaly_deg": 133.4789,
      "mean_motion_rev_day": 13.76329927
    },
    {
      "epoch": "2026-04-26T23:00:46.854432Z",
      "apogee_km": 1006.4617197566749,
      "perigee_km": 947.4030134663681,
      "latitude_deg": 58.28968640224341,
      "longitude_deg": -75.89950131867835,
      "height_km": 959.264627390694,
      "semi_major_axis_km": 7355.069366611521,
      "eccentricity": 0.00401483,
      "inclination_deg": 82.9568,
      "raan_deg": 112.7774,
      "arg_perigee_deg": 37.4445,
      "mean_anomaly_deg": 21.2913,
      "mean_motion_rev_day": 13.76330083
    },
    {
      "epoch": "2026-04-27T18:45:49.559040Z",
      "apogee_km": 1006.431599517603,
      "perigee_km": 947.4321789158621,
      "latitude_deg": 5.606884748860566,
      "longitude_deg": 154.25324333538114,
      "height_km": 1001.5253921164502,
      "semi_major_axis_km": 7355.068889216732,
      "eccentricity": 0.0040108,
      "inclination_deg": 82.9569,
      "raan_deg": 112.1678,
      "arg_perigee_deg": 35.1895,
      "mean_anomaly_deg": 138.7777,
      "mean_motion_rev_day": 13.76330217
    },
    {
      "epoch": "2026-04-28T17:26:32.744832Z",
      "apogee_km": 1006.3927808525641,
      "perigee_km": 947.4698575338434,
      "latitude_deg": 6.2615454997763065,
      "longitude_deg": 172.3604830799636,
      "height_km": 1002.1084344802963,
      "semi_major_axis_km": 7355.068319193204,
      "eccentricity": 0.0040056,
      "inclination_deg": 82.9569,
      "raan_deg": 111.4677,
      "arg_perigee_deg": 32.5649,
      "mean_anomaly_deg": 140.7591,
      "mean_motion_rev_day": 13.76330377
    },
    {
      "epoch": "2026-04-29T12:22:07.294944Z",
      "apogee_km": 1006.3540460264048,
      "perigee_km": 947.5077658260279,
      "latitude_deg": 60.423441656251946,
      "longitude_deg": -124.6292038449393,
      "height_km": 986.3433527581177,
      "semi_major_axis_km": 7355.067905926216,
      "eccentricity": 0.00400039,
      "inclination_deg": 82.957,
      "raan_deg": 110.8835,
      "arg_perigee_deg": 30.3859,
      "mean_anomaly_deg": 88.0514,
      "mean_motion_rev_day": 13.76330493
    },
    {
      "epoch": "2026-04-30T11:01:11.938944Z",
      "apogee_km": 1006.3120979999312,
      "perigee_km": 947.5490797015127,
      "latitude_deg": 66.46315726031862,
      "longitude_deg": -109.91030626585771,
      "height_km": 985.6528432731664,
      "semi_major_axis_km": 7355.067588850721,
      "eccentricity": 0.00399473,
      "inclination_deg": 82.9571,
      "raan_deg": 110.1843,
      "arg_perigee_deg": 27.7877,
      "mean_anomaly_deg": 84.3591,
      "mean_motion_rev_day": 13.76330582
    }
  ]
}